{
    "links": {
        "self": "http://www.neowsapp.com/rest/v1/neo/3968768?api_key=iIulBulltgU6a56xZRHN4H3l9WmuAYTsLGpBGhQ2"
    },
    "id": "3968768",
    "neo_reference_id": "3968768",
    "name": "(2019 YW5)",
    "designation": "2019 YW5",
    "nasa_jpl_url": "http://ssd.jpl.nasa.gov/sbdb.cgi?sstr=3968768",
    "absolute_magnitude_h": 23.5,
    "estimated_diameter": {
        "kilometers": {
            "estimated_diameter_min": 0.0530340723,
            "estimated_diameter_max": 0.1185877909
        },
        "meters": {
            "estimated_diameter_min": 53.0340723319,
            "estimated_diameter_max": 118.5877908577
        },
        "miles": {
            "estimated_diameter_min": 0.0329538346,
            "estimated_diameter_max": 0.0736870142
        },
        "feet": {
            "estimated_diameter_min": 173.9963058693,
            "estimated_diameter_max": 389.0675677576
        }
    },
    "is_potentially_hazardous_asteroid": false,
    "close_approach_data": [
        {
            "close_approach_date": "2019-12-10",
            "close_approach_date_full": "2019-Dec-10 05:25",
            "epoch_date_close_approach": 1575955500000,
            "relative_velocity": {
                "kilometers_per_second": "10.774813285",
                "kilometers_per_hour": "38789.3278258506",
                "miles_per_hour": "24102.1798371237"
            },
            "miss_distance": {
                "astronomical": "0.0381044278",
                "lunar": "14.8226224142",
                "kilometers": "5700341.236448786",
                "miles": "3542027.7983178068"
            },
            "orbiting_body": "Earth"
        },
        {
            "close_approach_date": "2102-10-02",
            "close_approach_date_full": "2102-Oct-02 04:21",
            "epoch_date_close_approach": 4189206060000,
            "relative_velocity": {
                "kilometers_per_second": "18.4176514911",
                "kilometers_per_hour": "66303.5453679751",
                "miles_per_hour": "41198.444620451"
            },
            "miss_distance": {
                "astronomical": "0.4464690755",
                "lunar": "173.6764703695",
                "kilometers": "66790822.715669185",
                "miles": "41501892.767177353"
            },
            "orbiting_body": "Earth"
        }
    ],
    "orbital_data": {
        "orbit_id": "4",
        "orbit_determination_date": "2020-01-08 06:23:28",
        "first_observation_date": "2019-12-31",
        "last_observation_date": "2020-01-06",
        "data_arc_in_days": 6,
        "observations_used": 28,
        "orbit_uncertainty": "8",
        "minimum_orbit_intersection": ".0287818",
        "jupiter_tisserand_invariant": "3.739",
        "epoch_osculation": "2458849.5",
        "eccentricity": ".4824564671664954",
        "semi_major_axis": "1.923849179744259",
        "inclination": "13.83703206139164",
        "ascending_node_longitude": "77.49001454457174",
        "orbital_period": "974.66407916014",
        "perihelion_distance": ".995675701123684",
        "perihelion_argument": "339.2474127065363",
        "aphelion_distance": "2.852022658364834",
        "perihelion_time": "2458811.407429062782",
        "mean_anomaly": "14.06979679523548",
        "mean_motion": ".3693580257007205",
        "equinox": "J2000",
        "orbit_class": {
            "orbit_class_type": "APO",
            "orbit_class_description": "Near-Earth asteroid orbits which cross the Earth’s orbit similar to that of 1862 Apollo",
            "orbit_class_range": "a (semi-major axis) > 1.0 AU; q (perihelion) < 1.017 AU"
        }
    },
    "is_sentry_object": false
}